[{"OBJECT_NAME":"SKYSAT-C9","OBJECT_ID":"2017-068C","EPOCH":"2025-03-09T20:16:15.316608","MEAN_MOTION":15.34469953,"ECCENTRICITY":0.0005494,"INCLINATION":97.3766,"RA_OF_ASC_NODE":198.1898,"ARG_OF_PERICENTER":42.8857,"MEAN_ANOMALY":317.2813,"EPHEMERIS_TYPE":0,"CLASSIFICATION_TYPE":"U","NORAD_CAT_ID":42989,"ELEMENT_SET_NO":999,"REV_AT_EPOCH":41146,"BSTAR":3.1071e-5,"MEAN_MOTION_DOT":9.58e-6,"MEAN_MOTION_DDOT":0},{"OBJECT_NAME":"SKYSAT-C8","OBJECT_ID":"2017-068D","EPOCH":"2025-03-09T22:27:28.629792","MEAN_MOTION":15.30066652,"ECCENTRICITY":0.0001621,"INCLINATION":97.3914,"RA_OF_ASC_NODE":198.8521,"ARG_OF_PERICENTER":165.3049,"MEAN_ANOMALY":194.8239,"EPHEMERIS_TYPE":0,"CLASSIFICATION_TYPE":"U","NORAD_CAT_ID":42990,"ELEMENT_SET_NO":999,"REV_AT_EPOCH":41118,"BSTAR":0.00065094,"MEAN_MOTION_DOT":0.00018893,"MEAN_MOTION_DDOT":0},{"OBJECT_NAME":"SKYSAT-C7","OBJECT_ID":"2017-068E","EPOCH":"2025-03-09T21:40:02.744256","MEAN_MOTION":15.31395183,"ECCENTRICITY":0.0003057,"INCLINATION":97.3916,"RA_OF_ASC_NODE":199.8257,"ARG_OF_PERICENTER":81.9476,"MEAN_ANOMALY":278.2112,"EPHEMERIS_TYPE":0,"CLASSIFICATION_TYPE":"U","NORAD_CAT_ID":42991,"ELEMENT_SET_NO":999,"REV_AT_EPOCH":41124,"BSTAR":0.00069575,"MEAN_MOTION_DOT":0.00021055,"MEAN_MOTION_DDOT":0},{"OBJECT_NAME":"SKYSAT-C6","OBJECT_ID":"2017-068F","EPOCH":"2025-03-09T21:13:22.875456","MEAN_MOTION":15.30663483,"ECCENTRICITY":0.0005749,"INCLINATION":97.3951,"RA_OF_ASC_NODE":200.7237,"ARG_OF_PERICENTER":38.0296,"MEAN_ANOMALY":322.135,"EPHEMERIS_TYPE":0,"CLASSIFICATION_TYPE":"U","NORAD_CAT_ID":42992,"ELEMENT_SET_NO":999,"REV_AT_EPOCH":41126,"BSTAR":0.00066362,"MEAN_MOTION_DOT":0.00019632,"MEAN_MOTION_DDOT":0},{"OBJECT_NAME":"CARTOSAT-2F","OBJECT_ID":"2018-004A","EPOCH":"2025-03-09T20:49:16.061664","MEAN_MOTION":15.19196453,"ECCENTRICITY":4.84e-5,"INCLINATION":97.4672,"RA_OF_ASC_NODE":130.3127,"ARG_OF_PERICENTER":133.8408,"MEAN_ANOMALY":226.2866,"EPHEMERIS_TYPE":0,"CLASSIFICATION_TYPE":"U","NORAD_CAT_ID":43111,"ELEMENT_SET_NO":999,"REV_AT_EPOCH":38697,"BSTAR":0.00044494,"MEAN_MOTION_DOT":9.344e-5,"MEAN_MOTION_DDOT":1.7011e-8},{"OBJECT_NAME":"GAOFEN-1 02","OBJECT_ID":"2018-031A","EPOCH":"2025-03-09T21:09:39.513312","MEAN_MOTION":14.7656966,"ECCENTRICITY":0.0006061,"INCLINATION":97.7843,"RA_OF_ASC_NODE":133.5411,"ARG_OF_PERICENTER":53.81,"MEAN_ANOMALY":306.367,"EPHEMERIS_TYPE":0,"CLASSIFICATION_TYPE":"U","NORAD_CAT_ID":43259,"ELEMENT_SET_NO":999,"REV_AT_EPOCH":37418,"BSTAR":0.00026689,"MEAN_MOTION_DOT":1.814e-5,"MEAN_MOTION_DDOT":0},{"OBJECT_NAME":"GAOFEN-1 03","OBJECT_ID":"2018-031B","EPOCH":"2025-03-09T22:15:55.448640","MEAN_MOTION":14.76588253,"ECCENTRICITY":0.0007211,"INCLINATION":97.7837,"RA_OF_ASC_NODE":133.4863,"ARG_OF_PERICENTER":90.2902,"MEAN_ANOMALY":269.9135,"EPHEMERIS_TYPE":0,"CLASSIFICATION_TYPE":"U","NORAD_CAT_ID":43260,"ELEMENT_SET_NO":999,"REV_AT_EPOCH":37418,"BSTAR":0.00026788,"MEAN_MOTION_DOT":1.822e-5,"MEAN_MOTION_DDOT":0},{"OBJECT_NAME":"GAOFEN-1 04","OBJECT_ID":"2018-031D","EPOCH":"2025-03-09T21:40:36.773760","MEAN_MOTION":14.76567745,"ECCENTRICITY":0.0004109,"INCLINATION":97.7846,"RA_OF_ASC_NODE":133.5987,"ARG_OF_PERICENTER":88.1226,"MEAN_ANOMALY":272.0455,"EPHEMERIS_TYPE":0,"CLASSIFICATION_TYPE":"U","NORAD_CAT_ID":43262,"ELEMENT_SET_NO":999,"REV_AT_EPOCH":37417,"BSTAR":0.00026062,"MEAN_MOTION_DOT":1.77e-5,"MEAN_MOTION_DDOT":0},{"OBJECT_NAME":"SENTINEL-3B","OBJECT_ID":"2018-039A","EPOCH":"2025-03-09T18:56:50.474976","MEAN_MOTION":14.26736577,"ECCENTRICITY":0.0001143,"INCLINATION":98.6255,"RA_OF_ASC_NODE":137.8987,"ARG_OF_PERICENTER":128.8071,"MEAN_ANOMALY":231.3212,"EPHEMERIS_TYPE":0,"CLASSIFICATION_TYPE":"U","NORAD_CAT_ID":43437,"ELEMENT_SET_NO":999,"REV_AT_EPOCH":35790,"BSTAR":0.00012706,"MEAN_MOTION_DOT":2.64e-6,"MEAN_MOTION_DDOT":0},{"OBJECT_NAME":"GAOFEN-5 01","OBJECT_ID":"2018-043A","EPOCH":"2025-03-09T20:28:13.609056","MEAN_MOTION":14.59981458,"ECCENTRICITY":0.0003133,"INCLINATION":98.3942,"RA_OF_ASC_NODE":27.7072,"ARG_OF_PERICENTER":82.3815,"MEAN_ANOMALY":277.774,"EPHEMERIS_TYPE":0,"CLASSIFICATION_TYPE":"U","NORAD_CAT_ID":43461,"ELEMENT_SET_NO":999,"REV_AT_EPOCH":36392,"BSTAR":0.0002073,"MEAN_MOTION_DOT":9.46e-6,"MEAN_MOTION_DDOT":0},{"OBJECT_NAME":"GAOFEN-6","OBJECT_ID":"2018-048A","EPOCH":"2025-03-09T21:07:32.530368","MEAN_MOTION":14.76565219,"ECCENTRICITY":0.0011175,"INCLINATION":97.8319,"RA_OF_ASC_NODE":141.9193,"ARG_OF_PERICENTER":231.0015,"MEAN_ANOMALY":129.0201,"EPHEMERIS_TYPE":0,"CLASSIFICATION_TYPE":"U","NORAD_CAT_ID":43484,"ELEMENT_SET_NO":999,"REV_AT_EPOCH":36487,"BSTAR":0.00024486,"MEAN_MOTION_DOT":1.66e-5,"MEAN_MOTION_DDOT":0},{"OBJECT_NAME":"GAOFEN-11 01","OBJECT_ID":"2018-063A","EPOCH":"2025-03-09T22:19:56.313696","MEAN_MOTION":15.40481098,"ECCENTRICITY":0.0005922,"INCLINATION":97.1923,"RA_OF_ASC_NODE":135.2913,"ARG_OF_PERICENTER":224.1188,"MEAN_ANOMALY":135.9587,"EPHEMERIS_TYPE":0,"CLASSIFICATION_TYPE":"U","NORAD_CAT_ID":43585,"ELEMENT_SET_NO":999,"REV_AT_EPOCH":36853,"BSTAR":0.00047147,"MEAN_MOTION_DOT":0.00019062,"MEAN_MOTION_DDOT":0},{"OBJECT_NAME":"ICESAT-2","OBJECT_ID":"2018-070A","EPOCH":"2025-03-09T20:15:49.083840","MEAN_MOTION":15.2820252,"ECCENTRICITY":0.0005121,"INCLINATION":91.9985,"RA_OF_ASC_NODE":166.0894,"ARG_OF_PERICENTER":160.599,"MEAN_ANOMALY":199.5455,"EPHEMERIS_TYPE":0,"CLASSIFICATION_TYPE":"U","NORAD_CAT_ID":43613,"ELEMENT_SET_NO":999,"REV_AT_EPOCH":36154,"BSTAR":0.00045851,"MEAN_MOTION_DOT":0.00012606,"MEAN_MOTION_DDOT":0},{"OBJECT_NAME":"HYSIS","OBJECT_ID":"2018-096A","EPOCH":"2025-03-09T22:05:47.558976","MEAN_MOTION":14.78585246,"ECCENTRICITY":0.0001069,"INCLINATION":98.042,"RA_OF_ASC_NODE":132.6751,"ARG_OF_PERICENTER":155.7294,"MEAN_ANOMALY":204.3967,"EPHEMERIS_TYPE":0,"CLASSIFICATION_TYPE":"U","NORAD_CAT_ID":43719,"ELEMENT_SET_NO":999,"REV_AT_EPOCH":33881,"BSTAR":0.00034892,"MEAN_MOTION_DOT":2.549e-5,"MEAN_MOTION_DDOT":1.03e-9},{"OBJECT_NAME":"KAZSTSAT","OBJECT_ID":"2018-099AB","EPOCH":"2025-03-09T17:51:53.682048","MEAN_MOTION":14.98271661,"ECCENTRICITY":0.0008101,"INCLINATION":97.4896,"RA_OF_ASC_NODE":115.4818,"ARG_OF_PERICENTER":152.6829,"MEAN_ANOMALY":207.4822,"EPHEMERIS_TYPE":0,"CLASSIFICATION_TYPE":"U","NORAD_CAT_ID":43783,"ELEMENT_SET_NO":999,"REV_AT_EPOCH":34172,"BSTAR":0.00030467,"MEAN_MOTION_DOT":3.569e-5,"MEAN_MOTION_DDOT":0},{"OBJECT_NAME":"SAUDISAT 5A","OBJECT_ID":"2018-102A","EPOCH":"2025-03-09T21:54:28.666656","MEAN_MOTION":15.21492473,"ECCENTRICITY":0.0010297,"INCLINATION":97.3703,"RA_OF_ASC_NODE":134.6397,"ARG_OF_PERICENTER":338.4111,"MEAN_ANOMALY":21.6689,"EPHEMERIS_TYPE":0,"CLASSIFICATION_TYPE":"U","NORAD_CAT_ID":43831,"ELEMENT_SET_NO":999,"REV_AT_EPOCH":34492,"BSTAR":0.0004399,"MEAN_MOTION_DOT":9.846e-5,"MEAN_MOTION_DDOT":0},{"OBJECT_NAME":"SAUDISAT 5B","OBJECT_ID":"2018-102C","EPOCH":"2025-03-09T21:57:39.081024","MEAN_MOTION":15.21992439,"ECCENTRICITY":0.0011085,"INCLINATION":97.3771,"RA_OF_ASC_NODE":136.9003,"ARG_OF_PERICENTER":341.433,"MEAN_ANOMALY":18.65,"EPHEMERIS_TYPE":0,"CLASSIFICATION_TYPE":"U","NORAD_CAT_ID":43833,"ELEMENT_SET_NO":999,"REV_AT_EPOCH":34502,"BSTAR":0.00041866,"MEAN_MOTION_DOT":9.507e-5,"MEAN_MOTION_DDOT":0}]
