SKYSAT-C9               
1 42989U 17068C   25068.84462172  .00000958  00000+0  31071-4 0  9996
2 42989  97.3766 198.1898 0005494  42.8857 317.2813 15.34469953411462
SKYSAT-C8               
1 42990U 17068D   25068.93574803  .00018893  00000+0  65094-3 0  9991
2 42990  97.3914 198.8521 0001621 165.3049 194.8239 15.30066652411186
SKYSAT-C7               
1 42991U 17068E   25068.90280954  .00021055  00000+0  69575-3 0  9992
2 42991  97.3916 199.8257 0003057  81.9476 278.2112 15.31395183411247
SKYSAT-C6               
1 42992U 17068F   25068.88429254  .00019632  00000+0  66362-3 0  9997
2 42992  97.3951 200.7237 0005749  38.0296 322.1350 15.30663483411265
CARTOSAT-2F             
1 43111U 18004A   25068.86754701  .00009344  17011-7  44494-3 0  9997
2 43111  97.4672 130.3127 0000484 133.8408 226.2866 15.19196453386976
GAOFEN-1 02             
1 43259U 18031A   25068.88170733  .00001814  00000+0  26689-3 0  9991
2 43259  97.7843 133.5411 0006061  53.8100 306.3670 14.76569660374189
GAOFEN-1 03             
1 43260U 18031B   25068.92772510  .00001822  00000+0  26788-3 0  9998
2 43260  97.7837 133.4863 0007211  90.2902 269.9135 14.76588253374186
GAOFEN-1 04             
1 43262U 18031D   25068.90320340  .00001770  00000+0  26062-3 0  9995
2 43262  97.7846 133.5987 0004109  88.1226 272.0455 14.76567745374176
SENTINEL-3B             
1 43437U 18039A   25068.78947309  .00000264  00000+0  12706-3 0  9990
2 43437  98.6255 137.8987 0001143 128.8071 231.3212 14.26736577357903
GAOFEN-5 01             
1 43461U 18043A   25068.85293529  .00000946  00000+0  20730-3 0  9991
2 43461  98.3942  27.7072 0003133  82.3815 277.7740 14.59981458363928
GAOFEN-6                
1 43484U 18048A   25068.88023762  .00001660  00000+0  24486-3 0  9990
2 43484  97.8319 141.9193 0011175 231.0015 129.0201 14.76565219364876
GAOFEN-11 01            
1 43585U 18063A   25068.93051289  .00019062  00000+0  47147-3 0  9994
2 43585  97.1923 135.2913 0005922 224.1188 135.9587 15.40481098368539
ICESAT-2                
1 43613U 18070A   25068.84431810  .00012606  00000+0  45851-3 0  9993
2 43613  91.9985 166.0894 0005121 160.5990 199.5455 15.28202520361547
HYSIS                   
1 43719U 18096A   25068.92068934  .00002549  10300-8  34892-3 0  9991
2 43719  98.0420 132.6751 0001069 155.7294 204.3967 14.78585246338817
KAZSTSAT                
1 43783U 18099AB  25068.74437132  .00003569  00000+0  30467-3 0  9999
2 43783  97.4896 115.4818 0008101 152.6829 207.4822 14.98271661341728
SAUDISAT 5A             
1 43831U 18102A   25068.91283179  .00009846  00000+0  43990-3 0  9996
2 43831  97.3703 134.6397 0010297 338.4111  21.6689 15.21492473344925
SAUDISAT 5B             
1 43833U 18102C   25068.91503566  .00009507  00000+0  41866-3 0  9997
2 43833  97.3771 136.9003 0011085 341.4330  18.6500 15.21992439345021
